STARLINK-3132           
1 49457U 21104BB  26200.48803655  .00092338  00000+0  30959-2 0  9998
2 49457  53.1630 345.2055 0001225  98.6382 261.4758 15.30151245258699
STARLINK-3156           
1 49458U 21104BC  26200.66670139  .00027030  00000+0  91865-3 0  9999
2 49458  53.1589 345.1446 0001647  92.5034  97.2331 15.30297307  5604
STARLINK-3141           
1 49459U 21104BD  26200.66670139  .00012909  00000+0  56715-3 0  9994
2 49459  53.1591 345.5476 0002035  52.3635 350.9819 15.22262326  5804
STARLINK-3140           
1 49460U 21104BE  26200.66670139  .00026903  00000+0  97196-3 0  9993
2 49460  53.1594 345.2388 0001037  76.8292 145.5795 15.28304329  5806
GLOBAL-14               
1 49469U 21106A   26199.76121180  .00014858  00000+0  24419-3 0  9993
2 49469  42.0036 103.2309 0018251 247.4363 112.4550 15.51942274263035
GAOFEN-11 03            
1 49492U 21107A   26200.62618003  .00002276  00000+0  97782-4 0  9998
2 49492  97.2063 243.5031 0004755 332.9906  27.1083 15.23646156259576
GAOFEN-3 02             
1 49495U 21109A   26200.58714074 -.00000055  00000+0 -36077-5 0  9999
2 49495  98.4094 208.2245 0001383 239.3219 120.7834 14.42210752244984
COSMOS 2552             
1 49503U 21113A   26200.33846057 -.00000112  00000+0  00000+0 0  9998
2 49503  62.8357 204.4996 6422921 272.4656  20.7583  2.00615443 34047
ZHONGXING-1D            
1 49505U 21114A   26199.71941707 -.00000344  00000+0  00000+0 0  9995
2 49505   0.0250 226.0905 0000619  24.7402  74.7947  1.00266793 17135
STARLINK-3219           
1 49724U 21115A   26200.59653208 -.00000615  00000+0 -80550-5 0  9990
2 49724  53.1606 272.6293 0001441  68.9484 291.1671 15.31688608255509
STARLINK-3218           
1 49725U 21115B   26200.66670139  .00080291  00000+0  29744-2 0  9992
2 49725  53.1607 275.5802 0000478 183.9078 140.7760 15.26959372  5802
STARLINK-3242           
1 49727U 21115D   26200.66670139  .00098287  00000+0  28156-2 0  9994
2 49727  53.1599 284.0205 0000586  87.1398 151.0375 15.35136262  5819
STARLINK-3240           
1 49728U 21115E   26200.60775801  .00000356  00000+0  21665-4 0  9991
2 49728  53.1604 283.3816 0001198  75.3319 284.7816 15.34386151255352
STARLINK-3251           
1 49729U 21115F   26200.66670139  .00041828  00000+0  13537-2 0  9992
2 49729  53.1690 284.3363 0000899  67.0686 329.6206 15.31661734  5814
STARLINK-3249           
1 49730U 21115G   26200.66670139  .00048944  00000+0  14061-2 0  9993
2 49730  53.1592 283.7494 0001157  72.1978 222.0276 15.35374069  5756
STARLINK-3246           
1 49732U 21115J   26200.61208874  .00000039  00000+0  13693-4 0  9998
2 49732  53.1596 284.5775 0001143  77.2383 282.8745 15.29353266255339
STARLINK-3252           
1 49733U 21115K   26200.66670139  .00046762  00000+0  15102-2 0  9999
2 49733  53.1583 284.3682 0001293  83.3656 236.0679 15.31678929  5810
STARLINK-3238           
1 49734U 21115L   26200.57789508  .00001302  00000+0  53691-4 0  9999
2 49734  53.1602 272.8686 0001127  63.2963 296.8154 15.31709532255491
STARLINK-3113           
1 49735U 21115M   26200.50333691  .00000443  00000+0  23611-4 0  9995
2 49735  53.1613 283.9536 0001182  78.2923 281.8213 15.35403294255337
STARLINK-3148           
1 49736U 21115N   26200.66670139  .00078448  00000+0  28605-2 0  9990
2 49736  53.1590 275.2992 0001009  60.9883 356.1671 15.27492781  5756
STARLINK-3225           
1 49737U 21115P   26200.48918784  .00000085  00000+0  23439-4 0  9996
2 49737  53.1602 277.1637 0001307  91.3154 268.7987 15.08833746255437
STARLINK-3143           
1 49738U 21115Q   26200.60952990  .00008659  00000+0  51484-3 0  9993
2 49738  53.2145 276.0111 0000555   8.5844 351.5159 15.12018660255466
STARLINK-3155           
1 49739U 21115R   26200.66670139  .00081230  00000+0  34410-2 0  9997
2 49739  53.1589 285.0462 0002419  88.0057 185.1109 15.22461380  5750
STARLINK-3226           
1 49740U 21115S   26200.45670406  .00000331  00000+0  22419-4 0  9994
2 49740  53.1602 273.2693 0000798  71.4574 288.6514 15.31697655255483
STARLINK-3244           
1 49741U 21115T   26200.58258449 -.00005307  00000+0 -15958-3 0  9997
2 49741  53.1583 272.7135 0000873  74.2708 285.8390 15.31657868255507
STARLINK-3202           
1 49742U 21115U   26200.66670139  .00077445  00000+0  31405-2 0  9995
2 49742  53.1592 275.1969 0001695 140.5998 208.0750 15.23962095  5817
STARLINK-3239           
1 49743U 21115V   26200.46137598  .00000165  00000+0  17093-4 0  9995
2 49743  53.1601 273.3382 0001224  74.2056 285.9080 15.31699033255482
STARLINK-3231           
1 49744U 21115W   26200.53595101  .00002812  00000+0  10238-3 0  9996
2 49744  53.1598 272.8968 0001217  76.9564 283.1573 15.31695142255492
STARLINK-3241           
1 49745U 21115X   26200.61053616  .00000169  00000+0  17196-4 0  9990
2 49745  53.1602 272.7651 0000995  66.8898 293.2208 15.31701735255502
STARLINK-3233           
1 49746U 21115Y   26200.59589706  .00001672  00000+0  12309-3 0  9992
2 49746  53.1585 276.6838 0000890  81.6563 278.4529 15.08846163255444
