OBJECT_NAME,OBJECT_ID,EPOCH,MEAN_MOTION,ECCENTRICITY,INCLINATION,RA_OF_ASC_NODE,ARG_OF_PERICENTER,MEAN_ANOMALY,EPHEMERIS_TYPE,CLASSIFICATION_TYPE,NORAD_CAT_ID,ELEMENT_SET_NO,REV_AT_EPOCH,BSTAR,MEAN_MOTION_DOT,MEAN_MOTION_DDOT
STARLINK-3132,2021-104BB,2026-07-19T11:42:46.357920,15.30151245,.00012252,53.1630,345.2055,98.6382,261.4758,0,U,49457,999,25869,.30959017E-2,.92338E-3,0
STARLINK-3156,2021-104BC,2026-07-19T16:00:03.000096,15.30297307,.00016471,53.1589,345.1446,92.5034,97.2331,0,U,49458,999,560,.91864539E-3,.2703E-3,0
STARLINK-3141,2021-104BD,2026-07-19T16:00:03.000096,15.22262326,.00020354,53.1591,345.5476,52.3635,350.9819,0,U,49459,999,580,.56714746E-3,.12909E-3,0
STARLINK-3140,2021-104BE,2026-07-19T16:00:03.000096,15.28304329,.00010376,53.1594,345.2388,76.8292,145.5795,0,U,49460,999,580,.97195597E-3,.26903E-3,0
GLOBAL-14,2021-106A,2026-07-18T18:16:08.699520,15.51942274,.00182515,42.0036,103.2309,247.4363,112.4550,0,U,49469,999,26303,.24419325E-3,.14858E-3,0
GAOFEN-11 03,2021-107A,2026-07-19T15:01:41.954592,15.23646156,.00047554,97.2063,243.5031,332.9906,27.1083,0,U,49492,999,25957,.97781868E-4,.2276E-4,0
GAOFEN-3 02,2021-109A,2026-07-19T14:05:28.959936,14.42210752,.0001383,98.4094,208.2245,239.3219,120.7834,0,U,49495,999,24498,-.3607692E-5,-.55E-6,0
COSMOS 2552,2021-113A,2026-07-19T08:07:22.993248,2.00615443,.64229216,62.8357,204.4996,272.4656,20.7583,0,U,49503,999,3404,0,-.112E-5,0
ZHONGXING-1D,2021-114A,2026-07-18T17:15:57.634848,1.00266793,.00006199,0.0250,226.0905,24.7402,74.7947,0,U,49505,999,1713,0,-.344E-5,0
STARLINK-3219,2021-115A,2026-07-19T14:19:00.371712,15.31688608,.00014415,53.1606,272.6293,68.9484,291.1671,0,U,49724,999,25550,-.8054993E-5,-.615E-5,0
STARLINK-3218,2021-115B,2026-07-19T16:00:03.000096,15.26959372,.0000478,53.1607,275.5802,183.9078,140.7760,0,U,49725,999,580,.2974366E-2,.80291E-3,0
STARLINK-3242,2021-115D,2026-07-19T16:00:03.000096,15.35136262,.00005861,53.1599,284.0205,87.1398,151.0375,0,U,49727,999,581,.28155642E-2,.98287E-3,0
STARLINK-3240,2021-115E,2026-07-19T14:35:10.292064,15.34386151,.00011986,53.1604,283.3816,75.3319,284.7816,0,U,49728,999,25535,.21664633E-4,.356E-5,0
STARLINK-3251,2021-115F,2026-07-19T16:00:03.000096,15.31661734,.00008994,53.1690,284.3363,67.0686,329.6206,0,U,49729,999,581,.13537383E-2,.41828E-3,0
STARLINK-3249,2021-115G,2026-07-19T16:00:03.000096,15.35374069,.00011576,53.1592,283.7494,72.1978,222.0276,0,U,49730,999,575,.14060761E-2,.48944E-3,0
STARLINK-3246,2021-115J,2026-07-19T14:41:24.467136,15.29353266,.00011437,53.1596,284.5775,77.2383,282.8745,0,U,49732,999,25533,.13693355E-4,.39E-6,0
STARLINK-3252,2021-115K,2026-07-19T16:00:03.000096,15.31678929,.00012935,53.1583,284.3682,83.3656,236.0679,0,U,49733,999,581,.15102029E-2,.46762E-3,0
STARLINK-3238,2021-115L,2026-07-19T13:52:10.134912,15.31709532,.0001127,53.1602,272.8686,63.2963,296.8154,0,U,49734,999,25549,.53690711E-4,.1302E-4,0
STARLINK-3113,2021-115M,2026-07-19T12:04:48.309024,15.35403294,.0001182,53.1613,283.9536,78.2923,281.8213,0,U,49735,999,25533,.23610607E-4,.443E-5,0
STARLINK-3148,2021-115N,2026-07-19T16:00:03.000096,15.27492781,.00010093,53.1590,275.2992,60.9883,356.1671,0,U,49736,999,575,.28604846E-2,.78448E-3,0
STARLINK-3225,2021-115P,2026-07-19T11:44:25.829376,15.08833746,.00013077,53.1602,277.1637,91.3154,268.7987,0,U,49737,999,25543,.23439207E-4,.85E-6,0
STARLINK-3143,2021-115Q,2026-07-19T14:37:43.383360,15.12018660,.00005551,53.2145,276.0111,8.5844,351.5159,0,U,49738,999,25546,.51483512E-3,.8659E-4,0
STARLINK-3155,2021-115R,2026-07-19T16:00:03.000096,15.22461380,.00024197,53.1589,285.0462,88.0057,185.1109,0,U,49739,999,575,.34410264E-2,.8123E-3,0
STARLINK-3226,2021-115S,2026-07-19T10:57:39.230784,15.31697655,.00007984,53.1602,273.2693,71.4574,288.6514,0,U,49740,999,25548,.22418818E-4,.331E-5,0
STARLINK-3244,2021-115T,2026-07-19T13:58:55.299936,15.31657868,.00008733,53.1583,272.7135,74.2708,285.8390,0,U,49741,999,25550,-.15957886E-3,-.5307E-4,0
STARLINK-3202,2021-115U,2026-07-19T16:00:03.000096,15.23962095,.00016955,53.1592,275.1969,140.5998,208.0750,0,U,49742,999,581,.31405105E-2,.77445E-3,0
STARLINK-3239,2021-115V,2026-07-19T11:04:22.884672,15.31699033,.00012247,53.1601,273.3382,74.2056,285.9080,0,U,49743,999,25548,.17093473E-4,.165E-5,0
STARLINK-3231,2021-115W,2026-07-19T12:51:46.167264,15.31695142,.00012173,53.1598,272.8968,76.9564,283.1573,0,U,49744,999,25549,.10237587E-3,.2812E-4,0
STARLINK-3241,2021-115X,2026-07-19T14:39:10.324224,15.31701735,.00009956,53.1602,272.7651,66.8898,293.2208,0,U,49745,999,25550,.17195791E-4,.169E-5,0
STARLINK-3233,2021-115Y,2026-07-19T14:18:05.505984,15.08846163,.00008908,53.1585,276.6838,81.6563,278.4529,0,U,49746,999,25544,.12309368E-3,.1672E-4,0
